STARLINK-37117          
1 68212U 26053F   26094.24018775  .00211482  00000+0  10710-2 0  9998
2 68212  97.2826 329.8033 0001901 149.9358 210.2020 15.80963891  4093
STARLINK-37116          
1 68213U 26053G   26094.23943926  .00105144  00000+0  54090-3 0  9990
2 68213  97.2830 329.8045 0001822  62.3933 297.7520 15.80903107  4090
STARLINK-35854          
1 68214U 26053H   26094.23868482  .00196190  00000+0  10010-2 0  9998
2 68214  97.2831 329.8053 0001599  40.4407 319.6980 15.80839916  4073
STARLINK-36272          
1 68215U 26053J   26094.25002315 -.01995472  00000+0 -17782-1 0  9991
2 68215  97.2842 329.8031 0001553  93.6810 297.0425 15.71406800  4019
STARLINK-37014          
1 68216U 26053K   26094.17388638  .00104788  00000+0  53909-3 0  9990
2 68216  97.2835 329.7402 0002062 128.3246 231.8208 15.80902725  4087
STARLINK-37011          
1 68217U 26053L   26094.23643290  .00189332  00000+0  96210-3 0  9996
2 68217  97.2831 329.8087 0001559  73.1673 286.9766 15.80947217  4091
STARLINK-37108          
1 68218U 26053M   26094.23568282  .00211122  00000+0  10698-2 0  9992
2 68218  97.2830 329.8100 0001815 105.2649 254.8820 15.80952662  4097
STARLINK-37106          
1 68219U 26053N   26094.23492984  .00154706  00000+0  79056-3 0  9996
2 68219  97.2833 329.8114 0001403  66.4836 293.6580 15.80915673  4090
STARLINK-37030          
1 68220U 26053P   26094.23342633  .00168230  00000+0  85738-3 0  9994
2 68220  97.2833 329.8126 0001519  96.4593 263.6849 15.80938357  4095
STARLINK-37012          
1 68221U 26053Q   26094.23417692  .00200530  00000+0  10180-2 0  9991
2 68221  97.2832 329.8116 0001979  65.1654 294.9820 15.80940014  4094
STARLINK-37110          
1 68222U 26053R   26094.29597448  .00199291  00000+0  10118-2 0  9998
2 68222  97.2835 329.8798 0001895 111.9713 248.1757 15.80939820  4102
STARLINK-37025          
1 68223U 26053S   26094.23192365  .00204706  00000+0  10386-2 0  9997
2 68223  97.2838 329.8136 0001388 100.9667 259.1758 15.80942461  4091
STARLINK-36977          
1 68224U 26053T   26094.25002315 -.00000650  00000+0 -28221-5 0  9999
2 68224  97.2844 329.8347 0001324  81.1876  23.1994 15.79564059  4019
STARLINK-36960          
1 68225U 26053U   26094.23042279  .00155327  00000+0  79376-3 0  9996
2 68225  97.2837 329.8154 0001281  95.8232 264.3182 15.80913709  4074
STARLINK-37038          
1 68226U 26053V   26094.16561306  .00317984  00000+0  15882-2 0  9996
2 68226  97.2836 329.7500 0000805 113.1016 247.0337 15.80992833  4067
STARLINK-37083          
1 68227U 26053W   26094.16636627  .00146924  00000+0  75100-3 0  9990
2 68227  97.2835 329.7499 0001276  97.0786 263.0628 15.80930587  4059
