[{"OBJECT_NAME":"STARLINK-37117","OBJECT_ID":"2026-053F","EPOCH":"2026-04-04T05:45:52.221600","MEAN_MOTION":15.80963891,"ECCENTRICITY":0.00019016,"INCLINATION":97.2826,"RA_OF_ASC_NODE":329.8033,"ARG_OF_PERICENTER":149.9358,"MEAN_ANOMALY":210.202,"EPHEMERIS_TYPE":0,"CLASSIFICATION_TYPE":"U","NORAD_CAT_ID":68212,"ELEMENT_SET_NO":999,"REV_AT_EPOCH":409,"BSTAR":0.0010709991,"MEAN_MOTION_DOT":0.00211482,"MEAN_MOTION_DDOT":0},{"OBJECT_NAME":"STARLINK-37116","OBJECT_ID":"2026-053G","EPOCH":"2026-04-04T05:44:47.552064","MEAN_MOTION":15.80903107,"ECCENTRICITY":0.00018225,"INCLINATION":97.283,"RA_OF_ASC_NODE":329.8045,"ARG_OF_PERICENTER":62.3933,"MEAN_ANOMALY":297.752,"EPHEMERIS_TYPE":0,"CLASSIFICATION_TYPE":"U","NORAD_CAT_ID":68213,"ELEMENT_SET_NO":999,"REV_AT_EPOCH":409,"BSTAR":0.0005408964,"MEAN_MOTION_DOT":0.00105144,"MEAN_MOTION_DDOT":0},{"OBJECT_NAME":"STARLINK-35854","OBJECT_ID":"2026-053H","EPOCH":"2026-04-04T05:43:42.368448","MEAN_MOTION":15.80839916,"ECCENTRICITY":0.00015993,"INCLINATION":97.2831,"RA_OF_ASC_NODE":329.8053,"ARG_OF_PERICENTER":40.4407,"MEAN_ANOMALY":319.698,"EPHEMERIS_TYPE":0,"CLASSIFICATION_TYPE":"U","NORAD_CAT_ID":68214,"ELEMENT_SET_NO":999,"REV_AT_EPOCH":407,"BSTAR":0.0010010208,"MEAN_MOTION_DOT":0.0019619,"MEAN_MOTION_DDOT":0},{"OBJECT_NAME":"STARLINK-36272","OBJECT_ID":"2026-053J","EPOCH":"2026-04-04T06:00:02.000160","MEAN_MOTION":15.714068,"ECCENTRICITY":0.00015539,"INCLINATION":97.2842,"RA_OF_ASC_NODE":329.8031,"ARG_OF_PERICENTER":93.681,"MEAN_ANOMALY":297.0425,"EPHEMERIS_TYPE":0,"CLASSIFICATION_TYPE":"U","NORAD_CAT_ID":68215,"ELEMENT_SET_NO":999,"REV_AT_EPOCH":401,"BSTAR":-0.017782149,"MEAN_MOTION_DOT":-0.01995472,"MEAN_MOTION_DDOT":0},{"OBJECT_NAME":"STARLINK-37014","OBJECT_ID":"2026-053K","EPOCH":"2026-04-04T04:10:23.783232","MEAN_MOTION":15.80902725,"ECCENTRICITY":0.00020624,"INCLINATION":97.2835,"RA_OF_ASC_NODE":329.7402,"ARG_OF_PERICENTER":128.3246,"MEAN_ANOMALY":231.8208,"EPHEMERIS_TYPE":0,"CLASSIFICATION_TYPE":"U","NORAD_CAT_ID":68216,"ELEMENT_SET_NO":999,"REV_AT_EPOCH":408,"BSTAR":0.00053908876,"MEAN_MOTION_DOT":0.00104788,"MEAN_MOTION_DDOT":0},{"OBJECT_NAME":"STARLINK-37011","OBJECT_ID":"2026-053L","EPOCH":"2026-04-04T05:40:27.802560","MEAN_MOTION":15.80947217,"ECCENTRICITY":0.00015592,"INCLINATION":97.2831,"RA_OF_ASC_NODE":329.8087,"ARG_OF_PERICENTER":73.1673,"MEAN_ANOMALY":286.9766,"EPHEMERIS_TYPE":0,"CLASSIFICATION_TYPE":"U","NORAD_CAT_ID":68217,"ELEMENT_SET_NO":999,"REV_AT_EPOCH":409,"BSTAR":0.00096209905,"MEAN_MOTION_DOT":0.00189332,"MEAN_MOTION_DDOT":0},{"OBJECT_NAME":"STARLINK-37108","OBJECT_ID":"2026-053M","EPOCH":"2026-04-04T05:39:22.995648","MEAN_MOTION":15.80952662,"ECCENTRICITY":0.00018159,"INCLINATION":97.283,"RA_OF_ASC_NODE":329.81,"ARG_OF_PERICENTER":105.2649,"MEAN_ANOMALY":254.882,"EPHEMERIS_TYPE":0,"CLASSIFICATION_TYPE":"U","NORAD_CAT_ID":68218,"ELEMENT_SET_NO":999,"REV_AT_EPOCH":409,"BSTAR":0.0010697761,"MEAN_MOTION_DOT":0.00211122,"MEAN_MOTION_DDOT":0},{"OBJECT_NAME":"STARLINK-37106","OBJECT_ID":"2026-053N","EPOCH":"2026-04-04T05:38:17.938176","MEAN_MOTION":15.80915673,"ECCENTRICITY":0.00014033,"INCLINATION":97.2833,"RA_OF_ASC_NODE":329.8114,"ARG_OF_PERICENTER":66.4836,"MEAN_ANOMALY":293.658,"EPHEMERIS_TYPE":0,"CLASSIFICATION_TYPE":"U","NORAD_CAT_ID":68219,"ELEMENT_SET_NO":999,"REV_AT_EPOCH":409,"BSTAR":0.00079056485,"MEAN_MOTION_DOT":0.00154706,"MEAN_MOTION_DDOT":0},{"OBJECT_NAME":"STARLINK-37030","OBJECT_ID":"2026-053P","EPOCH":"2026-04-04T05:36:08.034912","MEAN_MOTION":15.80938357,"ECCENTRICITY":0.00015199,"INCLINATION":97.2833,"RA_OF_ASC_NODE":329.8126,"ARG_OF_PERICENTER":96.4593,"MEAN_ANOMALY":263.6849,"EPHEMERIS_TYPE":0,"CLASSIFICATION_TYPE":"U","NORAD_CAT_ID":68220,"ELEMENT_SET_NO":999,"REV_AT_EPOCH":409,"BSTAR":0.00085737932,"MEAN_MOTION_DOT":0.0016823,"MEAN_MOTION_DDOT":0},{"OBJECT_NAME":"STARLINK-37012","OBJECT_ID":"2026-053Q","EPOCH":"2026-04-04T05:37:12.885888","MEAN_MOTION":15.80940014,"ECCENTRICITY":0.00019795,"INCLINATION":97.2832,"RA_OF_ASC_NODE":329.8116,"ARG_OF_PERICENTER":65.1654,"MEAN_ANOMALY":294.982,"EPHEMERIS_TYPE":0,"CLASSIFICATION_TYPE":"U","NORAD_CAT_ID":68221,"ELEMENT_SET_NO":999,"REV_AT_EPOCH":409,"BSTAR":0.0010179569,"MEAN_MOTION_DOT":0.0020053,"MEAN_MOTION_DDOT":0},{"OBJECT_NAME":"STARLINK-37110","OBJECT_ID":"2026-053R","EPOCH":"2026-04-04T07:06:12.195072","MEAN_MOTION":15.8093982,"ECCENTRICITY":0.00018953,"INCLINATION":97.2835,"RA_OF_ASC_NODE":329.8798,"ARG_OF_PERICENTER":111.9713,"MEAN_ANOMALY":248.1757,"EPHEMERIS_TYPE":0,"CLASSIFICATION_TYPE":"U","NORAD_CAT_ID":68222,"ELEMENT_SET_NO":999,"REV_AT_EPOCH":410,"BSTAR":0.0010118297,"MEAN_MOTION_DOT":0.00199291,"MEAN_MOTION_DDOT":0},{"OBJECT_NAME":"STARLINK-37025","OBJECT_ID":"2026-053S","EPOCH":"2026-04-04T05:33:58.203360","MEAN_MOTION":15.80942461,"ECCENTRICITY":0.00013884,"INCLINATION":97.2838,"RA_OF_ASC_NODE":329.8136,"ARG_OF_PERICENTER":100.9667,"MEAN_ANOMALY":259.1758,"EPHEMERIS_TYPE":0,"CLASSIFICATION_TYPE":"U","NORAD_CAT_ID":68223,"ELEMENT_SET_NO":999,"REV_AT_EPOCH":409,"BSTAR":0.0010385538,"MEAN_MOTION_DOT":0.00204706,"MEAN_MOTION_DDOT":0},{"OBJECT_NAME":"STARLINK-36977","OBJECT_ID":"2026-053T","EPOCH":"2026-04-04T06:00:02.000160","MEAN_MOTION":15.79564059,"ECCENTRICITY":0.00013247,"INCLINATION":97.2844,"RA_OF_ASC_NODE":329.8347,"ARG_OF_PERICENTER":81.1876,"MEAN_ANOMALY":23.1994,"EPHEMERIS_TYPE":0,"CLASSIFICATION_TYPE":"U","NORAD_CAT_ID":68224,"ELEMENT_SET_NO":999,"REV_AT_EPOCH":401,"BSTAR":-2.822054e-6,"MEAN_MOTION_DOT":-6.5e-6,"MEAN_MOTION_DDOT":0},{"OBJECT_NAME":"STARLINK-36960","OBJECT_ID":"2026-053U","EPOCH":"2026-04-04T05:31:48.529056","MEAN_MOTION":15.80913709,"ECCENTRICITY":0.00012816,"INCLINATION":97.2837,"RA_OF_ASC_NODE":329.8154,"ARG_OF_PERICENTER":95.8232,"MEAN_ANOMALY":264.3182,"EPHEMERIS_TYPE":0,"CLASSIFICATION_TYPE":"U","NORAD_CAT_ID":68225,"ELEMENT_SET_NO":999,"REV_AT_EPOCH":407,"BSTAR":0.00079375516,"MEAN_MOTION_DOT":0.00155327,"MEAN_MOTION_DDOT":0},{"OBJECT_NAME":"STARLINK-37038","OBJECT_ID":"2026-053V","EPOCH":"2026-04-04T03:58:28.968384","MEAN_MOTION":15.80992833,"ECCENTRICITY":8.059e-5,"INCLINATION":97.2836,"RA_OF_ASC_NODE":329.75,"ARG_OF_PERICENTER":113.1016,"MEAN_ANOMALY":247.0337,"EPHEMERIS_TYPE":0,"CLASSIFICATION_TYPE":"U","NORAD_CAT_ID":68226,"ELEMENT_SET_NO":999,"REV_AT_EPOCH":406,"BSTAR":0.0015881592,"MEAN_MOTION_DOT":0.00317984,"MEAN_MOTION_DDOT":0},{"OBJECT_NAME":"STARLINK-37083","OBJECT_ID":"2026-053W","EPOCH":"2026-04-04T03:59:34.045728","MEAN_MOTION":15.80930587,"ECCENTRICITY":0.0001276,"INCLINATION":97.2835,"RA_OF_ASC_NODE":329.7499,"ARG_OF_PERICENTER":97.0786,"MEAN_ANOMALY":263.0628,"EPHEMERIS_TYPE":0,"CLASSIFICATION_TYPE":"U","NORAD_CAT_ID":68227,"ELEMENT_SET_NO":999,"REV_AT_EPOCH":405,"BSTAR":0.00075099989,"MEAN_MOTION_DOT":0.00146924,"MEAN_MOTION_DDOT":0}]
